GLOBALSTAR M084         
1 38040U 11080A   25298.66720537 -.00000088  00000+0  86048-4 0  9993
2 38040  52.0038  11.2449 0000275  80.1410  78.2613 12.62264568639146
GLOBALSTAR M080         
1 38041U 11080B   25298.95832016 -.00000090  00000+0  78351-4 0  9993
2 38041  52.0087  11.9964 0000960 105.8603  65.3322 12.62269867639309
GLOBALSTAR M082         
1 38042U 11080C   25298.81520559 -.00000085  00000+0  10691-3 0  9991
2 38042  52.0091 327.9090 0000665 104.4571  66.5199 12.62264192639992
GLOBALSTAR M092         
1 38043U 11080D   25298.59593730 -.00000097  00000+0  39753-4 0  9992
2 38043  52.0092  58.9569 0000718 104.5612 268.7070 12.62267294638429
GLOBALSTAR M090         
1 38044U 11080E   25298.84184344 -.00000084  00000+0  11081-3 0  9997
2 38044  52.0136 321.7085 0000376 114.1248  57.0586 12.62263411640112
GLOBALSTAR M086         
1 38045U 11080F   25298.98856832 -.00000086  00000+0  99383-4 0  9995
2 38045  51.9909 321.5728 0000679 241.0403 123.9591 12.62278559640084
GLOBALSTAR M097         
1 39072U 13005A   25298.85671739 -.00000080  00000+0  13307-3 0  9997
2 39072  52.0040 236.6588 0000504  77.2405 282.8518 12.62266750587311
GLOBALSTAR M093         
1 39073U 13005B   25298.75153709 -.00000069  00000+0  19145-3 0  9992
2 39073  52.0099 230.2376 0000541  97.7367 262.3561 12.62265658587256
